[{"OBJECT_NAME":"STARLINK-5578","OBJECT_ID":"2023-013AV","EPOCH":"2026-03-09T01:00:28.004256","MEAN_MOTION":15.02538729,"ECCENTRICITY":0.00011839,"INCLINATION":43.0054,"RA_OF_ASC_NODE":316.6999,"ARG_OF_PERICENTER":277.8174,"MEAN_ANOMALY":82.2534,"EPHEMERIS_TYPE":0,"CLASSIFICATION_TYPE":"U","NORAD_CAT_ID":55374,"ELEMENT_SET_NO":999,"REV_AT_EPOCH":17146,"BSTAR":5.6406719e-5,"MEAN_MOTION_DOT":5.58e-6,"MEAN_MOTION_DDOT":0},{"OBJECT_NAME":"COSMOS 2251 DEB","OBJECT_ID":"1993-036KZ","EPOCH":"2026-03-09T13:28:08.575968","MEAN_MOTION":15.07827872,"ECCENTRICITY":0.00279097,"INCLINATION":73.9949,"RA_OF_ASC_NODE":118.7357,"ARG_OF_PERICENTER":226.7607,"MEAN_ANOMALY":259.798,"EPHEMERIS_TYPE":0,"CLASSIFICATION_TYPE":"U","NORAD_CAT_ID":34128,"ELEMENT_SET_NO":999,"REV_AT_EPOCH":90472,"BSTAR":0.0021198383,"MEAN_MOTION_DOT":0.0003287,"MEAN_MOTION_DDOT":0}]
